start=new Date('2022-05-12T00:00:00.000Z').valueOf();
sats=[{"MEAN_ANOMALY":"275.8320","MEAN_MOTION":"15.06392040","CLASSIFICATION_TYPE":"U","NORAD_CAT_ID":"48568","RA_OF_ASC_NODE":"286.9566","RCS_SIZE":"LARGE","REV_AT_EPOCH":"5450","MEAN_ELEMENT_THEORY":"SGP4","PERIAPSIS":"546.151","DECAY_DATE":null,"EPHEMERIS_TYPE":"0","REF_FRAME":"TEME","ECCENTRICITY":"0.00015690","TIME_SYSTEM":"UTC","MEAN_MOTION_DDOT":"0.0000000000000","APOAPSIS":"548.325","GP_ID":"203309781","OBJECT_NAME":"STARLINK-2217","PERIOD":"95.593","OBJECT_TYPE":"PAYLOAD","MEAN_MOTION_DOT":"-0.00001413","TLE_LINE2":"2 48568  53.0550 286.9566 0001569  84.2848 275.8320 15.06392040 54509","OBJECT_ID":"2021-041R","CENTER_NAME":"EARTH","ARG_OF_PERICENTER":"84.2848","EPOCH":"2022-05-11T19:24:00.060192","BSTAR":"-0.00007601400000","LAUNCH_DATE":"2021-05-15","FILE":"3441154","SEMIMAJOR_AXIS":"6925.373","COUNTRY_CODE":"US","ELEMENT_SET_NO":"999","SITE":"AFETR","TLE_LINE1":"1 48568U 21041R   22131.80833403 -.00001413  00000-0 -76014-4 0  9990","INCLINATION":"53.0550"},{"APOAPSIS":"548.440","GP_ID":"203284590","OBJECT_NAME":"STARLINK-2219","PERIOD":"95.592","OBJECT_TYPE":"PAYLOAD","MEAN_MOTION_DOT":"-0.00001214","TLE_LINE2":"2 48569  53.0530 288.6387 0001792  69.4683 290.6498 15.06404784 54856","CENTER_NAME":"EARTH","OBJECT_ID":"2021-041S","ARG_OF_PERICENTER":"69.4683","EPOCH":"2022-05-11T10:27:54.169632","BSTAR":"-0.00006262200000","FILE":"3440982","LAUNCH_DATE":"2021-05-15","SEMIMAJOR_AXIS":"6925.334","COUNTRY_CODE":"US","ELEMENT_SET_NO":"999","SITE":"AFETR","TLE_LINE1":"1 48569U 21041S   22131.43604363 -.00001214  00000-0 -62622-4 0  9990","INCLINATION":"53.0530","MEAN_MOTION":"15.06404784","MEAN_ANOMALY":"290.6498","CLASSIFICATION_TYPE":"U","NORAD_CAT_ID":"48569","RA_OF_ASC_NODE":"288.6387","RCS_SIZE":"LARGE","REV_AT_EPOCH":"5485","PERIAPSIS":"545.958","MEAN_ELEMENT_THEORY":"SGP4","DECAY_DATE":null,"EPHEMERIS_TYPE":"0","REF_FRAME":"TEME","ECCENTRICITY":"0.00017920","TIME_SYSTEM":"UTC","MEAN_MOTION_DDOT":"0.0000000000000"},{"BSTAR":"0.00001131300000","ARG_OF_PERICENTER":"73.2373","EPOCH":"2022-05-11T21:19:26.374080","COUNTRY_CODE":"US","SEMIMAJOR_AXIS":"6925.373","FILE":"3441154","LAUNCH_DATE":"2021-05-15","ELEMENT_SET_NO":"999","INCLINATION":"53.0561","TLE_LINE1":"1 48570U 21041T   22131.88849970 -.00000113  00000-0  11313-4 0  9993","SITE":"AFETR","GP_ID":"203309286","APOAPSIS":"548.262","OBJECT_NAME":"STARLINK-2220","OBJECT_TYPE":"PAYLOAD","PERIOD":"95.593","CENTER_NAME":"EARTH","TLE_LINE2":"2 48570  53.0561 296.5892 0001479  73.2373 286.8778 15.06391996 54377","OBJECT_ID":"2021-041T","MEAN_MOTION_DOT":"-0.00000113","EPHEMERIS_TYPE":"0","DECAY_DATE":null,"ECCENTRICITY":"0.00014790","REF_FRAME":"TEME","MEAN_MOTION_DDOT":"0.0000000000000","TIME_SYSTEM":"UTC","CLASSIFICATION_TYPE":"U","NORAD_CAT_ID":"48570","MEAN_MOTION":"15.06391996","MEAN_ANOMALY":"286.8778","REV_AT_EPOCH":"5437","RCS_SIZE":"LARGE","RA_OF_ASC_NODE":"296.5892","PERIAPSIS":"546.214","MEAN_ELEMENT_THEORY":"SGP4"},{"NORAD_CAT_ID":"48571","CLASSIFICATION_TYPE":"U","MEAN_ANOMALY":"291.5055","MEAN_MOTION":"15.06393323","MEAN_ELEMENT_THEORY":"SGP4","PERIAPSIS":"546.499","REV_AT_EPOCH":"5437","RCS_SIZE":"LARGE","RA_OF_ASC_NODE":"296.8663","ECCENTRICITY":"0.00010620","REF_FRAME":"TEME","EPHEMERIS_TYPE":"0","DECAY_DATE":null,"MEAN_MOTION_DDOT":"0.0000000000000","TIME_SYSTEM":"UTC","OBJECT_NAME":"STARLINK-2221","GP_ID":"203309537","APOAPSIS":"547.969","TLE_LINE2":"2 48571  53.0544 296.8663 0001062  68.6047 291.5055 15.06393323 54379","CENTER_NAME":"EARTH","OBJECT_ID":"2021-041U","MEAN_MOTION_DOT":"-0.00000227","OBJECT_TYPE":"PAYLOAD","PERIOD":"95.593","COUNTRY_CODE":"US","SEMIMAJOR_AXIS":"6925.369","LAUNCH_DATE":"2021-05-15","FILE":"3441154","BSTAR":"0.00000366080000","EPOCH":"2022-05-11T19:54:30.642048","ARG_OF_PERICENTER":"68.6047","INCLINATION":"53.0544","TLE_LINE1":"1 48571U 21041U   22131.82952132 -.00000227  00000-0  36608-5 0  9994","SITE":"AFETR","ELEMENT_SET_NO":"999"},{"SEMIMAJOR_AXIS":"6925.364","COUNTRY_CODE":"US","FILE":"3441154","LAUNCH_DATE":"2021-05-15","ARG_OF_PERICENTER":"89.5037","EPOCH":"2022-05-11T21:24:43.800768","BSTAR":"-0.00004128300000","TLE_LINE1":"1 48572U 21041V   22131.89217362 -.00000896  00000-0 -41283-4 0  9998","INCLINATION":"53.0534","SITE":"AFETR","ELEMENT_SET_NO":"999","OBJECT_NAME":"STARLINK-2222","GP_ID":"203310282","APOAPSIS":"548.198","MEAN_MOTION_DOT":"-0.00000896","OBJECT_ID":"2021-041V","TLE_LINE2":"2 48572  53.0534 296.5816 0001398  89.5037 270.6112 15.06394841 54388","CENTER_NAME":"EARTH","OBJECT_TYPE":"PAYLOAD","PERIOD":"95.592","ECCENTRICITY":"0.00013980","REF_FRAME":"TEME","DECAY_DATE":null,"EPHEMERIS_TYPE":"0","MEAN_MOTION_DDOT":"0.0000000000000","TIME_SYSTEM":"UTC","MEAN_MOTION":"15.06394841","MEAN_ANOMALY":"270.6112","CLASSIFICATION_TYPE":"U","NORAD_CAT_ID":"48572","PERIAPSIS":"546.261","MEAN_ELEMENT_THEORY":"SGP4","RCS_SIZE":"LARGE","REV_AT_EPOCH":"5438","RA_OF_ASC_NODE":"296.5816"},{"RA_OF_ASC_NODE":"286.9571","RCS_SIZE":"LARGE","REV_AT_EPOCH":"5450","MEAN_ELEMENT_THEORY":"SGP4","PERIAPSIS":"546.060","MEAN_MOTION":"15.06408690","MEAN_ANOMALY":"294.3926","CLASSIFICATION_TYPE":"U","NORAD_CAT_ID":"48573","TIME_SYSTEM":"UTC","MEAN_MOTION_DDOT":"0.0000000000000","DECAY_DATE":null,"EPHEMERIS_TYPE":"0","REF_FRAME":"TEME","ECCENTRICITY":"0.00016270","PERIOD":"95.592","OBJECT_TYPE":"PAYLOAD","MEAN_MOTION_DOT":"0.00001007","TLE_LINE2":"2 48573  53.0548 286.9571 0001627  65.7233 294.3926 15.06408690 54502","OBJECT_ID":"2021-041W","CENTER_NAME":"EARTH","APOAPSIS":"548.314","GP_ID":"203309037","OBJECT_NAME":"STARLINK-2224","ELEMENT_SET_NO":"999","SITE":"AFETR","TLE_LINE1":"1 48573U 21041W   22131.80462787  .00001007  00000-0  86470-4 0  9993","INCLINATION":"53.0548","EPOCH":"2022-05-11T19:18:39.847968","ARG_OF_PERICENTER":"65.7233","BSTAR":"0.00008647000000","LAUNCH_DATE":"2021-05-15","FILE":"3441154","SEMIMAJOR_AXIS":"6925.322","COUNTRY_CODE":"US"},{"RA_OF_ASC_NODE":"256.4621","RCS_SIZE":"LARGE","REV_AT_EPOCH":"130","PERIAPSIS":"546.088","MEAN_ELEMENT_THEORY":"SGP4","MEAN_ANOMALY":"47.3974","MEAN_MOTION":"15.06404476","CLASSIFICATION_TYPE":"U","NORAD_CAT_ID":"48574","TIME_SYSTEM":"UTC","MEAN_MOTION_DDOT":"0.0000000000000","DECAY_DATE":null,"EPHEMERIS_TYPE":"0","REF_FRAME":"TEME","ECCENTRICITY":"0.00016050","PERIOD":"95.592","OBJECT_TYPE":"PAYLOAD","MEAN_MOTION_DOT":"-0.00012438","TLE_LINE2":"2 48574  53.0538 256.4621 0001605  50.8104  47.3974 15.06404476  1305","OBJECT_ID":"2021-041X","CENTER_NAME":"EARTH","APOAPSIS":"548.311","GP_ID":"203308787","OBJECT_NAME":"STARLINK-2225","ELEMENT_SET_NO":"999","SITE":"AFETR","TLE_LINE1":"1 48574U 21041X   22131.91667824 -.00012438  00000-0 -81747-3 0  9998","INCLINATION":"53.0538","EPOCH":"2022-05-11T22:00:00.999936","ARG_OF_PERICENTER":"50.8104","BSTAR":"-0.00081747000000","FILE":"3441154","LAUNCH_DATE":"2021-05-15","SEMIMAJOR_AXIS":"6925.335","COUNTRY_CODE":"US"},{"TIME_SYSTEM":"UTC","MEAN_MOTION_DDOT":"0.0000000000000","REF_FRAME":"TEME","ECCENTRICITY":"0.00015470","EPHEMERIS_TYPE":"0","DECAY_DATE":null,"PERIAPSIS":"546.116","MEAN_ELEMENT_THEORY":"SGP4","RA_OF_ASC_NODE":"246.4720","REV_AT_EPOCH":"130","RCS_SIZE":"LARGE","NORAD_CAT_ID":"48575","CLASSIFICATION_TYPE":"U","MEAN_ANOMALY":"67.1232","MEAN_MOTION":"15.06408524","SITE":"AFETR","INCLINATION":"53.0521","TLE_LINE1":"1 48575U 21041Y   22131.91667824 -.00012132  00000-0 -79674-3 0  9996","ELEMENT_SET_NO":"999","LAUNCH_DATE":"2021-05-15","FILE":"3441154","COUNTRY_CODE":"US","SEMIMAJOR_AXIS":"6925.322","BSTAR":"-0.00079674000000","EPOCH":"2022-05-11T22:00:00.999936","ARG_OF_PERICENTER":"65.9879","OBJECT_ID":"2021-041Y","TLE_LINE2":"2 48575  53.0521 246.4720 0001547  65.9879  67.1232 15.06408524  1303","CENTER_NAME":"EARTH","MEAN_MOTION_DOT":"-0.00012132","PERIOD":"95.592","OBJECT_TYPE":"PAYLOAD","OBJECT_NAME":"STARLINK-2227","APOAPSIS":"548.259","GP_ID":"203310038"},{"PERIAPSIS":"546.044","MEAN_ELEMENT_THEORY":"SGP4","RA_OF_ASC_NODE":"261.4183","RCS_SIZE":"LARGE","REV_AT_EPOCH":"130","MEAN_MOTION":"15.06412939","MEAN_ANOMALY":"274.1841","CLASSIFICATION_TYPE":"U","NORAD_CAT_ID":"48576","TIME_SYSTEM":"UTC","MEAN_MOTION_DDOT":"0.0000000000000","REF_FRAME":"TEME","ECCENTRICITY":"0.00016310","DECAY_DATE":null,"EPHEMERIS_TYPE":"0","MEAN_MOTION_DOT":"-0.00035242","TLE_LINE2":"2 48576  53.0575 261.4183 0001631  51.3553 274.1841 15.06412939  1306","OBJECT_ID":"2021-041Z","CENTER_NAME":"EARTH","PERIOD":"95.591","OBJECT_TYPE":"PAYLOAD","OBJECT_NAME":"STARLINK-2228","APOAPSIS":"548.303","GP_ID":"203309782","SITE":"AFETR","INCLINATION":"53.0575","TLE_LINE1":"1 48576U 21041Z   22131.91667824 -.00035242  00000-0 -23579-2 0  9996","ELEMENT_SET_NO":"999","LAUNCH_DATE":"2021-05-15","FILE":"3441154","SEMIMAJOR_AXIS":"6925.309","COUNTRY_CODE":"US","ARG_OF_PERICENTER":"51.3553","EPOCH":"2022-05-11T22:00:00.999936","BSTAR":"-0.00235790000000"},{"OBJECT_NAME":"STARLINK-2231","APOAPSIS":"548.257","GP_ID":"203308538","TLE_LINE2":"2 48577  53.0553 286.6966 0001463  69.7096 290.4050 15.06390209 54518","CENTER_NAME":"EARTH","OBJECT_ID":"2021-041AA","MEAN_MOTION_DOT":"0.00001332","PERIOD":"95.593","OBJECT_TYPE":"PAYLOAD","FILE":"3441154","LAUNCH_DATE":"2021-05-15","COUNTRY_CODE":"US","SEMIMAJOR_AXIS":"6925.379","BSTAR":"0.00010835000000","ARG_OF_PERICENTER":"69.7096","EPOCH":"2022-05-11T20:43:36.304032","SITE":"AFETR","INCLINATION":"53.0553","TLE_LINE1":"1 48577U 21041AA  22131.86361463  .00001332  00000-0  10835-3 0  9994","ELEMENT_SET_NO":"999","NORAD_CAT_ID":"48577","CLASSIFICATION_TYPE":"U","MEAN_MOTION":"15.06390209","MEAN_ANOMALY":"290.4050","MEAN_ELEMENT_THEORY":"SGP4","PERIAPSIS":"546.230","RA_OF_ASC_NODE":"286.6966","REV_AT_EPOCH":"5451","RCS_SIZE":"LARGE","REF_FRAME":"TEME","ECCENTRICITY":"0.00014630","EPHEMERIS_TYPE":"0","DECAY_DATE":null,"TIME_SYSTEM":"UTC","MEAN_MOTION_DDOT":"0.0000000000000"}];
